{
    "links": {
        "self": "http://www.neowsapp.com/rest/v1/neo/3795060?api_key=iIulBulltgU6a56xZRHN4H3l9WmuAYTsLGpBGhQ2"
    },
    "id": "3795060",
    "neo_reference_id": "3795060",
    "name": "(2017 YW4)",
    "designation": "2017 YW4",
    "nasa_jpl_url": "http://ssd.jpl.nasa.gov/sbdb.cgi?sstr=3795060",
    "absolute_magnitude_h": 24.0,
    "estimated_diameter": {
        "kilometers": {
            "estimated_diameter_min": 0.0421264611,
            "estimated_diameter_max": 0.0941976306
        },
        "meters": {
            "estimated_diameter_min": 42.1264610556,
            "estimated_diameter_max": 94.1976305719
        },
        "miles": {
            "estimated_diameter_min": 0.0261761612,
            "estimated_diameter_max": 0.0585316759
        },
        "feet": {
            "estimated_diameter_min": 138.2101784897,
            "estimated_diameter_max": 309.0473542854
        }
    },
    "is_potentially_hazardous_asteroid": false,
    "close_approach_data": [
        {
            "close_approach_date": "2017-12-22",
            "close_approach_date_full": "2017-Dec-22 03:20",
            "epoch_date_close_approach": 1513912800000,
            "relative_velocity": {
                "kilometers_per_second": "9.5319001185",
                "kilometers_per_hour": "34314.8404264971",
                "miles_per_hour": "21321.9073750087"
            },
            "miss_distance": {
                "astronomical": "0.1065168388",
                "lunar": "41.4350502932",
                "kilometers": "15934692.203613356",
                "miles": "9901358.6032260728"
            },
            "orbiting_body": "Earth"
        }
    ],
    "orbital_data": {
        "orbit_id": "5",
        "orbit_determination_date": "2018-02-23 06:22:46",
        "first_observation_date": "2017-12-24",
        "last_observation_date": "2018-02-21",
        "data_arc_in_days": 59,
        "observations_used": 40,
        "orbit_uncertainty": "7",
        "minimum_orbit_intersection": ".0534601",
        "jupiter_tisserand_invariant": "3.346",
        "epoch_osculation": "2459000.5",
        "eccentricity": ".5540678691721579",
        "semi_major_axis": "2.313041598830528",
        "inclination": "9.018320741103603",
        "ascending_node_longitude": "276.6753383763821",
        "orbital_period": "1284.912612094034",
        "perihelion_distance": "1.031459568859936",
        "perihelion_argument": "192.7331421001113",
        "aphelion_distance": "3.594623628801119",
        "perihelion_time": "2459409.877219679432",
        "mean_anomaly": "245.3028620799231",
        "mean_motion": ".2801746956264246",
        "equinox": "J2000",
        "orbit_class": {
            "orbit_class_type": "AMO",
            "orbit_class_description": "Near-Earth asteroid orbits similar to that of 1221 Amor",
            "orbit_class_range": "1.017 AU < q (perihelion) < 1.3 AU"
        }
    },
    "is_sentry_object": false
}